{"type": "FeatureCollection", "features": [ {"type": "Feature", "properties": {"norad_id": 31752, "name": "FENGYUN 1C DEB", "group": "fengyun-1c-debris", "lat": -29.036698829991263, "lon": -116.55902853550762, "alt_km": 955.6095250770195, "timestamp": "2025-12-21T22:41:41.743799+00:00", "meta": {"OBJECT_NAME": "FENGYUN 1C DEB", "OBJECT_ID": "1999-025CFB", "EPOCH": "2025-12-18T10:55:16.632768", "MEAN_MOTION": 13.93070684, "ECCENTRICITY": 0.03557691, "INCLINATION": 98.9786, "RA_OF_ASC_NODE": 65.0821, "ARG_OF_PERICENTER": 317.9795, "MEAN_ANOMALY": 39.4568, "EPHEMERIS_TYPE": 0, "CLASSIFICATION_TYPE": "U", "NORAD_CAT_ID": 31752, "ELEMENT_SET_NO": 999, "REV_AT_EPOCH": 93670, "BSTAR": 0.0010716417, "MEAN_MOTION_DOT": 2.302e-05, "MEAN_MOTION_DDOT": 0}, "tle": {"line1": "1 31752U 99025CFB 25352.45505362  .00002302  00000+0  10716-2 0  9993", "line2": "2 31752  98.9786  65.0821 0355769 317.9795  39.4568 13.93070684936706"}}, "geometry": {"type": "Point", "coordinates": [-116.55902853550762, -29.036698829991263]}}, {"type": "Feature", "properties": {"norad_id": 31753, "name": "FENGYUN 1C DEB", "group": "fengyun-1c-debris", "lat": -65.59279626789697, "lon": -170.73391307756944, "alt_km": 854.7801981295452, "timestamp": "2025-12-21T22:41:41.743809+00:00", "meta": {"OBJECT_NAME": "FENGYUN 1C DEB", "OBJECT_ID": "1999-025CFC", "EPOCH": "2025-12-21T01:22:17.899968", "MEAN_MOTION": 14.18648066, "ECCENTRICITY": 0.01595075, "INCLINATION": 98.6308, "RA_OF_ASC_NODE": 27.9561, "ARG_OF_PERICENTER": 149.8607, "MEAN_ANOMALY": 240.3905, "EPHEMERIS_TYPE": 0, "CLASSIFICATION_TYPE": "U", "NORAD_CAT_ID": 31753, "ELEMENT_SET_NO": 999, "REV_AT_EPOCH": 96137, "BSTAR": 0.00021041396, "MEAN_MOTION_DOT": 4.53e-06, "MEAN_MOTION_DDOT": 0}, "tle": {"line1": "1 31753U 99025CFC 25355.05715162  .00000453  00000+0  21041-3 0  9993", "line2": "2 31753  98.6308  27.9561 0159507 149.8607 240.3905 14.18648066961370"}}, "geometry": {"type": "Point", "coordinates": [-170.73391307756944, -65.59279626789697]}}, {"type": "Feature", "properties": {"norad_id": 31754, "name": "FENGYUN 1C DEB", "group": "fengyun-1c-debris", "lat": 39.95506265641366, "lon": -45.8839059370295, "alt_km": 778.0146245609722, "timestamp": "2025-12-21T22:41:41.743819+00:00", "meta": {"OBJECT_NAME": "FENGYUN 1C DEB", "OBJECT_ID": "1999-025CFD", "EPOCH": "2025-12-19T15:33:43.119936", "MEAN_MOTION": 14.4229945, "ECCENTRICITY": 0.00493482, "INCLINATION": 99.0407, "RA_OF_ASC_NODE": 319.3487, "ARG_OF_PERICENTER": 196.9555, "MEAN_ANOMALY": 162.9985, "EPHEMERIS_TYPE": 0, "CLASSIFICATION_TYPE": "U", "NORAD_CAT_ID": 31754, "ELEMENT_SET_NO": 999, "REV_AT_EPOCH": 97089, "BSTAR": 0.00063748904, "MEAN_MOTION_DOT": 2.086e-05, "MEAN_MOTION_DDOT": 0}, "tle": {"line1": "1 31754U 99025CFD 25353.64841574  .00002086  00000+0  63749-3 0  9999", "line2": "2 31754  99.0407 319.3487 0049348 196.9555 162.9985 14.42299450970897"}}, "geometry": {"type": "Point", "coordinates": [-45.8839059370295, 39.95506265641366]}}, {"type": "Feature", "properties": {"norad_id": 31757, "name": "FENGYUN 1C DEB", "group": "fengyun-1c-debris", "lat": -11.017685818929236, "lon": 19.4785294856458, "alt_km": 811.7061841053492, "timestamp": "2025-12-21T22:41:41.743829+00:00", "meta": {"OBJECT_NAME": "FENGYUN 1C DEB", "OBJECT_ID": "1999-025CFG", "EPOCH": "2025-12-19T19:34:47.252352", "MEAN_MOTION": 14.07925739, "ECCENTRICITY": 0.02177667, "INCLINATION": 98.7671, "RA_OF_ASC_NODE": 15.6869, "ARG_OF_PERICENTER": 64.1846, "MEAN_ANOMALY": 298.1612, "EPHEMERIS_TYPE": 0, "CLASSIFICATION_TYPE": "U", "NORAD_CAT_ID": 31757, "ELEMENT_SET_NO": 999, "REV_AT_EPOCH": 63981, "BSTAR": 9.3425243e-05, "MEAN_MOTION_DOT": 1.55e-06, "MEAN_MOTION_DDOT": 0}, "tle": {"line1": "1 31757U 99025CFG 25353.81582468  .00000155  00000+0  93425-4 0  9995", "line2": "2 31757  98.7671  15.6869 0217766  64.1846 298.1612 14.07925739639819"}}, "geometry": {"type": "Point", "coordinates": [19.4785294856458, -11.017685818929236]}}, {"type": "Feature", "properties": {"norad_id": 31758, "name": "FENGYUN 1C DEB", "group": "fengyun-1c-debris", "lat": -77.20756683741973, "lon": 43.13487575950746, "alt_km": 934.8192323400926, "timestamp": "2025-12-21T22:41:41.743839+00:00", "meta": {"OBJECT_NAME": "FENGYUN 1C DEB", "OBJECT_ID": "1999-025CFH", "EPOCH": "2025-12-20T18:45:49.222944", "MEAN_MOTION": 14.42196591, "ECCENTRICITY": 0.03173131, "INCLINATION": 98.0588, "RA_OF_ASC_NODE": 3.4255, "ARG_OF_PERICENTER": 65.8513, "MEAN_ANOMALY": 297.5511, "EPHEMERIS_TYPE": 0, "CLASSIFICATION_TYPE": "U", "NORAD_CAT_ID": 31758, "ELEMENT_SET_NO": 999, "REV_AT_EPOCH": 94316, "BSTAR": 0.001401927, "MEAN_MOTION_DOT": 8.454e-05, "MEAN_MOTION_DDOT": 0}, "tle": {"line1": "1 31758U 99025CFH 25354.78181971  .00008454  00000+0  14019-2 0  9997", "line2": "2 31758  98.0588   3.4255 0317313  65.8513 297.5511 14.42196591943164"}}, "geometry": {"type": "Point", "coordinates": [43.13487575950746, -77.20756683741973]}}, {"type": "Feature", "properties": {"norad_id": 31760, "name": "FENGYUN 1C DEB", "group": "fengyun-1c-debris", "lat": -65.96982547996845, "lon": -107.25339787133028, "alt_km": 789.241522352876, "timestamp": "2025-12-21T22:41:41.743849+00:00", "meta": {"OBJECT_NAME": "FENGYUN 1C DEB", "OBJECT_ID": "1999-025CFK", "EPOCH": "2025-12-21T01:23:42.635040", "MEAN_MOTION": 14.30205373, "ECCENTRICITY": 0.00530711, "INCLINATION": 99.254, "RA_OF_ASC_NODE": 93.2522, "ARG_OF_PERICENTER": 173.5922, "MEAN_ANOMALY": 186.5949, "EPHEMERIS_TYPE": 0, "CLASSIFICATION_TYPE": "U", "NORAD_CAT_ID": 31760, "ELEMENT_SET_NO": 999, "REV_AT_EPOCH": 96251, "BSTAR": 0.00048338519, "MEAN_MOTION_DOT": 1.222e-05, "MEAN_MOTION_DDOT": 0}, "tle": {"line1": "1 31760U 99025CFK 25355.05813235  .00001222  00000+0  48339-3 0  9995", "line2": "2 31760  99.2540  93.2522 0053071 173.5922 186.5949 14.30205373962519"}}, "geometry": {"type": "Point", "coordinates": [-107.25339787133028, -65.96982547996845]}}, {"type": "Feature", "properties": {"norad_id": 31761, "name": "FENGYUN 1C DEB", "group": "fengyun-1c-debris", "lat": -60.1964201886839, "lon": -125.21556194115364, "alt_km": 712.020939331208, "timestamp": "2025-12-21T22:41:41.743859+00:00", "meta": {"OBJECT_NAME": "FENGYUN 1C DEB", "OBJECT_ID": "1999-025CFL", "EPOCH": "2025-12-20T02:30:09.935424", "MEAN_MOTION": 14.03556511, "ECCENTRICITY": 0.04712131, "INCLINATION": 98.6337, "RA_OF_ASC_NODE": 217.6466, "ARG_OF_PERICENTER": 242.6152, "MEAN_ANOMALY": 112.6331, "EPHEMERIS_TYPE": 0, "CLASSIFICATION_TYPE": "U", "NORAD_CAT_ID": 31761, "ELEMENT_SET_NO": 999, "REV_AT_EPOCH": 58214, "BSTAR": 0.001137025, "MEAN_MOTION_DOT": 4.795e-05, "MEAN_MOTION_DDOT": 0}, "tle": {"line1": "1 31761U 99025CFL 25354.10428166  .00004795  00000+0  11370-2 0  9998", "line2": "2 31761  98.6337 217.6466 0471213 242.6152 112.6331 14.03556511582146"}}, "geometry": {"type": "Point", "coordinates": [-125.21556194115364, -60.1964201886839]}}, {"type": "Feature", "properties": {"norad_id": 31763, "name": "FENGYUN 1C DEB", "group": "fengyun-1c-debris", "lat": -0.6180811120504232, "lon": 103.16375168119396, "alt_km": 781.1911248133401, "timestamp": "2025-12-21T22:41:41.743869+00:00", "meta": {"OBJECT_NAME": "FENGYUN 1C DEB", "OBJECT_ID": "1999-025CFN", "EPOCH": "2025-12-21T06:49:14.973312", "MEAN_MOTION": 13.50345592, "ECCENTRICITY": 0.05465035, "INCLINATION": 98.521, "RA_OF_ASC_NODE": 102.5013, "ARG_OF_PERICENTER": 47.4661, "MEAN_ANOMALY": 342.8081, "EPHEMERIS_TYPE": 0, "CLASSIFICATION_TYPE": "U", "NORAD_CAT_ID": 31763, "ELEMENT_SET_NO": 999, "REV_AT_EPOCH": 91121, "BSTAR": 0.00047885148, "MEAN_MOTION_DOT": 7.49e-06, "MEAN_MOTION_DDOT": 0}, "tle": {"line1": "1 31763U 99025CFN 25355.28420108  .00000749  00000+0  47885-3 0  9994", "line2": "2 31763  98.5210 102.5013 0546503  47.4661 342.8081 13.50345592911217"}}, "geometry": {"type": "Point", "coordinates": [103.16375168119396, -0.6180811120504232]}}, {"type": "Feature", "properties": {"norad_id": 31766, "name": "FENGYUN 1C DEB", "group": "fengyun-1c-debris", "lat": 9.646108852356095, "lon": -7.995837586120656, "alt_km": 890.2140797478833, "timestamp": "2025-12-21T22:41:41.743879+00:00", "meta": {"OBJECT_NAME": "FENGYUN 1C DEB", "OBJECT_ID": "1999-025CFR", "EPOCH": "2025-12-17T05:52:06.498624", "MEAN_MOTION": 14.05281807, "ECCENTRICITY": 0.00733682, "INCLINATION": 98.8161, "RA_OF_ASC_NODE": 348.9454, "ARG_OF_PERICENTER": 278.3877, "MEAN_ANOMALY": 80.8979, "EPHEMERIS_TYPE": 0, "CLASSIFICATION_TYPE": "U", "NORAD_CAT_ID": 31766, "ELEMENT_SET_NO": 999, "REV_AT_EPOCH": 64149, "BSTAR": 4.8529148e-05, "MEAN_MOTION_DOT": 3.7e-07, "MEAN_MOTION_DDOT": 0}, "tle": {"line1": "1 31766U 99025CFR 25351.24451966  .00000037  00000+0  48529-4 0  9992", "line2": "2 31766  98.8161 348.9454 0073368 278.3877  80.8979 14.05281807641495"}}, "geometry": {"type": "Point", "coordinates": [-7.995837586120656, 9.646108852356095]}}, {"type": "Feature", "properties": {"norad_id": 31767, "name": "FENGYUN 1C DEB", "group": "fengyun-1c-debris", "lat": -29.05070069752722, "lon": 30.330019889706417, "alt_km": 874.0164246098675, "timestamp": "2025-12-21T22:41:41.743889+00:00", "meta": {"OBJECT_NAME": "FENGYUN 1C DEB", "OBJECT_ID": "1999-025CFS", "EPOCH": "2025-12-20T13:23:06.950112", "MEAN_MOTION": 14.04956804, "ECCENTRICITY": 0.0041505, "INCLINATION": 98.8209, "RA_OF_ASC_NODE": 24.0328, "ARG_OF_PERICENTER": 48.452, "MEAN_ANOMALY": 106.7669, "EPHEMERIS_TYPE": 0, "CLASSIFICATION_TYPE": "U", "NORAD_CAT_ID": 31767, "ELEMENT_SET_NO": 999, "REV_AT_EPOCH": 94935, "BSTAR": 0.00023026, "MEAN_MOTION_DOT": 3.31e-06, "MEAN_MOTION_DDOT": 0}, "tle": {"line1": "1 31767U 99025CFS 25354.55771933  .00000331  00000+0  23026-3 0  9990", "line2": "2 31767  98.8209  24.0328 0041505  48.4520 106.7669 14.04956804949355"}}, "geometry": {"type": "Point", "coordinates": [30.330019889706417, -29.05070069752722]}}]}